[Satellite]
VERSION=1.1
NAME=UGUISU
NICKNAME=UGUISU
TLE1=1 44330U 98067QF  19317.48184653  .00008314  00000-0  13370-3 0  9997
TLE2=2 44330  51.6406 338.6113 0006136 276.5168  83.5124 15.53908547 23201
STATUS=0
